SKYSAT-C1               
1 41601U 16040C   26165.48068317  .00008815  00000+0  25143-3 0  9999
2 41601  96.9563 197.3471 0003691  63.4839 296.6785 15.36261031557453
LAPAN-A3                
1 41603U 16040E   26165.64563510  .00003145  00000+0  10059-3 0  9995
2 41603  97.1485 161.8748 0011194  34.2704 325.9260 15.33089754554423
GAOFEN-3                
1 41727U 16049A   26165.58636741  .00000022  00000+0  19703-4 0  9998
2 41727  98.4007 173.4113 0001324  98.5249 261.6090 14.42215196518270
SKYSAT-C4               
1 41771U 16058B   26165.55350849  .00015338  00000+0  28977-3 0  9994
2 41771  96.9169 187.4360 0001207 127.9790 232.1571 15.48512300545066
SKYSAT-C5               
1 41772U 16058C   26165.36500868  .00007486  00000+0  22671-3 0  9992
2 41772  97.0472 206.1311 0001341 336.4595  23.6588 15.34434911543313
SKYSAT-C2               
1 41773U 16058D   26165.53392473  .00011691  00000+0  27583-3 0  9993
2 41773  97.0166 187.7287 0004858  76.0638 284.1150 15.42017220544646
SKYSAT-C3               
1 41774U 16058E   26165.56514677  .00021060  00000+0  34569-3 0  9992
2 41774  96.9001 196.5129 0001585  90.4822 269.6614 15.52438708545705
ALSAT-1B                
1 41785U 16059C   26165.58960828  .00000343  00000+0  61805-4 0  9995
2 41785  97.7748 174.4651 0007926 229.8481 130.2033 14.72272972520197
PATHFINDER 1            
1 41787U 16059E   26165.54580664  .00000489  00000+0  93757-4 0  9991
2 41787  97.8166 164.9412 0027593 212.2093 147.7428 14.67660398519321
SCATSAT 1               
1 41790U 16059H   26165.44041845  .00000969  00000+0  13410-3 0  9997
2 41790  98.1191 229.1781 0053296 256.5818 102.9449 14.79520248101184
GOKTURK 1A              
1 41875U 16073A   26165.57798103  .00000308  00000+0  69452-4 0  9992
2 41875  98.1262  60.2936 0001439  77.6410 282.4952 14.62772803508446
RESOURCESAT-2A          
1 41877U 16074A   26165.60742216  .00000640  00000+0  31177-3 0  9994
2 41877  98.7533 239.1327 0003342  88.4970 271.6590 14.21617477493937
CARTOSAT-2D             
1 41948U 17008A   26165.58979447  .00004531  00000+0  21773-3 0  9990
2 41948  97.4114 224.9443 0003726 239.9577 120.1288 15.19317436517186
SENTINEL-2B             
1 42063U 17013A   26165.62007721  .00000348  00000+0  14955-3 0  9993
2 42063  98.5698 240.4307 0001179  86.3617 273.7701 14.30817113484272
CARTOSAT-2E             
1 42767U 17036C   26165.60757751  .00004470  00000+0  21535-3 0  9994
2 42767  97.4286 225.4523 0002626 334.7097  25.4009 15.19238960497752
FORMOSAT-5              
1 42920U 17049A   26165.63918565  .00000145  00000+0  47729-4 0  9993
2 42920  98.2254 241.0054 0012706  91.3860 268.8791 14.50898035466301
SENTINEL-5P             
1 42969U 17064A   26165.45292649  .00000039  00000+0  39511-4 0  9993
2 42969  98.7925 107.6035 0000977  84.1724 275.9564 14.19518589449177
SKYSAT-C11              
1 42987U 17068A   26165.35944682  .00026289  00000+0  35492-3 0  9995
2 42987  97.4344 314.0673 0000733  84.5716 275.5623 15.57763800482805
SKYSAT-C10              
1 42988U 17068B   26165.42333752  .00008583  00000+0  25842-3 0  9999
2 42988  97.4501 302.2433 0001141  93.4182 266.7191 15.34597640481931
SKYSAT-C9               
1 42989U 17068C   26165.64245266  .00011926  00000+0  28600-3 0  9996
2 42989  97.4421 303.3750 0009293 141.0340 219.1578 15.41505590482369
SKYSAT-C8               
1 42990U 17068D   26165.65931418  .00009914  00000+0  27674-3 0  9994
2 42990  97.4518 302.2718 0001472  97.0669 263.0743 15.36932092481923
SKYSAT-C7               
1 42991U 17068E   26165.65284999  .00009970  00000+0  27855-3 0  9993
2 42991  97.4529 303.2544 0007190 113.8134 246.3864 15.36881933481982
SKYSAT-C6               
1 42992U 17068F   26165.34216786  .00009233  00000+0  28152-3 0  9992
2 42992  97.4561 302.9198 0004293 144.7927 215.3600 15.34167172481887
CARTOSAT-2F             
1 43111U 18004A   26165.57382421  .00005746  00000+0  27626-3 0  9992
2 43111  97.4796 225.2341 0000525 238.1433 121.9751 15.19200322466938
GAOFEN-1 02             
1 43259U 18031A   26165.58766545  .00000737  00000+0  11331-3 0  9990
2 43259  98.0534 228.1220 0003993  40.3953 319.7552 14.76453341442313
GAOFEN-1 03             
1 43260U 18031B   26165.63360557  .00000632  00000+0  98213-4 0  9990
2 43260  98.0524 228.0265 0003795  84.1860 275.9782 14.76465760442311
GAOFEN-1 04             
1 43262U 18031D   26165.60928596  .00001311  00000+0  19574-3 0  9999
2 43262  98.0536 228.1926 0002270  84.9776 275.1693 14.76478163442305
SENTINEL-3B             
1 43437U 18039A   26165.17411822  .00000102  00000+0  60315-4 0  9999
2 43437  98.6249 232.7495 0000753  83.4735 276.6531 14.26734006423695
GAOFEN-5 01             
1 43461U 18043A   26165.52703713  .00000275  00000+0  66631-4 0  9991
2 43461  98.4567 137.0574 0003035  87.9512 272.2035 14.60603692431308
GAOFEN-6                
1 43484U 18048A   26165.63162837  .00001004  00000+0  15079-3 0  9999
2 43484  97.8552 228.4434 0011629 175.6155 184.5159 14.76597407433011
