OBJECT_NAME,OBJECT_ID,EPOCH,MEAN_MOTION,ECCENTRICITY,INCLINATION,RA_OF_ASC_NODE,ARG_OF_PERICENTER,MEAN_ANOMALY,EPHEMERIS_TYPE,CLASSIFICATION_TYPE,NORAD_CAT_ID,ELEMENT_SET_NO,REV_AT_EPOCH,BSTAR,MEAN_MOTION_DOT,MEAN_MOTION_DDOT
SKYSAT-C1,2016-040C,2026-06-14T11:32:11.025888,15.36261031,.00036912,96.9563,197.3471,63.4839,296.6785,0,U,41601,999,55745,.25142587E-3,.8815E-4,0
LAPAN-A3,2016-040E,2026-06-14T15:29:42.872640,15.33089754,.00111945,97.1485,161.8748,34.2704,325.9260,0,U,41603,999,55442,.10058789E-3,.3145E-4,0
GAOFEN-3,2016-049A,2026-06-14T14:04:22.144224,14.42215196,.00013241,98.4007,173.4113,98.5249,261.6090,0,U,41727,999,51827,.19703024E-4,.22E-6,0
SKYSAT-C4,2016-058B,2026-06-14T13:17:03.133536,15.48512300,.00012075,96.9169,187.4360,127.9790,232.1571,0,U,41771,999,54506,.2897686E-3,.15338E-3,0
SKYSAT-C5,2016-058C,2026-06-14T08:45:36.749952,15.34434911,.00013415,97.0472,206.1311,336.4595,23.6588,0,U,41772,999,54331,.22670818E-3,.7486E-4,0
SKYSAT-C2,2016-058D,2026-06-14T12:48:51.096672,15.42017220,.00048588,97.0166,187.7287,76.0638,284.1150,0,U,41773,999,54464,.27583037E-3,.11691E-3,0
SKYSAT-C3,2016-058E,2026-06-14T13:33:48.680928,15.52438708,.00015855,96.9001,196.5129,90.4822,269.6614,0,U,41774,999,54570,.34569067E-3,.2106E-3,0
ALSAT-1B,2016-059C,2026-06-14T14:09:02.155392,14.72272972,.00079262,97.7748,174.4651,229.8481,130.2033,0,U,41785,999,52019,.61805268E-4,.343E-5,0
PATHFINDER 1,2016-059E,2026-06-14T13:05:57.693696,14.67660398,.00275933,97.8166,164.9412,212.2093,147.7428,0,U,41787,999,51932,.93757458E-4,.489E-5,0
SCATSAT 1,2016-059H,2026-06-14T10:34:12.154080,14.79520248,.00532965,98.1191,229.1781,256.5818,102.9449,0,U,41790,999,10118,.13410355E-3,.969E-5,0
GOKTURK 1A,2016-073A,2026-06-14T13:52:17.560992,14.62772803,.00014399,98.1262,60.2936,77.6410,282.4952,0,U,41875,999,50844,.69451593E-4,.308E-5,0
RESOURCESAT-2A,2016-074A,2026-06-14T14:34:41.274624,14.21617477,.00033423,98.7533,239.1327,88.4970,271.6590,0,U,41877,999,49393,.31177355E-3,.64E-5,0
CARTOSAT-2D,2017-008A,2026-06-14T14:09:18.242208,15.19317436,.00037263,97.4114,224.9443,239.9577,120.1288,0,U,41948,999,51718,.21772517E-3,.4531E-4,0
SENTINEL-2B,2017-013A,2026-06-14T14:52:54.670944,14.30817113,.00011792,98.5698,240.4307,86.3617,273.7701,0,U,42063,999,48427,.14955269E-3,.348E-5,0
CARTOSAT-2E,2017-036C,2026-06-14T14:34:54.696864,15.19238960,.00026262,97.4286,225.4523,334.7097,25.4009,0,U,42767,999,49775,.21534886E-3,.447E-4,0
FORMOSAT-5,2017-049A,2026-06-14T15:20:25.640160,14.50898035,.00127067,98.2254,241.0054,91.3860,268.8791,0,U,42920,999,46630,.47728886E-4,.145E-5,0
SENTINEL-5P,2017-064A,2026-06-14T10:52:12.848736,14.19518589,.00009773,98.7925,107.6035,84.1724,275.9564,0,U,42969,999,44917,.39510962E-4,.39E-6,0
SKYSAT-C11,2017-068A,2026-06-14T08:37:36.205248,15.57763800,.0000733,97.4344,314.0673,84.5716,275.5623,0,U,42987,999,48280,.35491691E-3,.26289E-3,0
SKYSAT-C10,2017-068B,2026-06-14T10:09:36.361728,15.34597640,.00011416,97.4501,302.2433,93.4182,266.7191,0,U,42988,999,48193,.25841548E-3,.8583E-4,0
SKYSAT-C9,2017-068C,2026-06-14T15:25:07.909824,15.41505590,.00092936,97.4421,303.3750,141.0340,219.1578,0,U,42989,999,48236,.28599803E-3,.11926E-3,0
SKYSAT-C8,2017-068D,2026-06-14T15:49:24.745152,15.36932092,.00014729,97.4518,302.2718,97.0669,263.0743,0,U,42990,999,48192,.2767417E-3,.9914E-4,0
SKYSAT-C7,2017-068E,2026-06-14T15:40:06.239136,15.36881933,.00071903,97.4529,303.2544,113.8134,246.3864,0,U,42991,999,48198,.27854887E-3,.997E-4,0
SKYSAT-C6,2017-068F,2026-06-14T08:12:43.303104,15.34167172,.00042934,97.4561,302.9198,144.7927,215.3600,0,U,42992,999,48188,.28152489E-3,.9233E-4,0
CARTOSAT-2F,2018-004A,2026-06-14T13:46:18.411744,15.19200322,.00005252,97.4796,225.2341,238.1433,121.9751,0,U,43111,999,46693,.27626146E-3,.5746E-4,0
GAOFEN-1 02,2018-031A,2026-06-14T14:06:14.294880,14.76453341,.00039938,98.0534,228.1220,40.3953,319.7552,0,U,43259,999,44231,.11330783E-3,.737E-5,0
GAOFEN-1 03,2018-031B,2026-06-14T15:12:23.521248,14.76465760,.00037956,98.0524,228.0265,84.1860,275.9782,0,U,43260,999,44231,.98213268E-4,.632E-5,0
GAOFEN-1 04,2018-031D,2026-06-14T14:37:22.306944,14.76478163,.00022708,98.0536,228.1926,84.9776,275.1693,0,U,43262,999,44230,.1957412E-3,.1311E-4,0
SENTINEL-3B,2018-039A,2026-06-14T04:10:43.814208,14.26734006,.00007536,98.6249,232.7495,83.4735,276.6531,0,U,43437,999,42369,.6031543E-4,.102E-5,0
GAOFEN-5 01,2018-043A,2026-06-14T12:38:56.008032,14.60603692,.0003035,98.4567,137.0574,87.9512,272.2035,0,U,43461,999,43130,.66630692E-4,.275E-5,0
GAOFEN-6,2018-048A,2026-06-14T15:09:32.691168,14.76597407,.00116295,97.8552,228.4434,175.6155,184.5159,0,U,43484,999,43301,.15078853E-3,.1004E-4,0
